ORBCOMM FM103           
1 40091U 14040F   25027.15638184  .00001651  00000+0  39449-3 0  9999
2 40091  47.0061 323.6513 0002245 343.1487  16.9324 14.57741830543524
ORBCOMM FM114           
1 41179U 15081A   25027.86829557  .00001438  00000+0  34798-3 0  9992
2 41179  47.0010 229.4272 0001596  72.6740 287.4320 14.57803204483994
ORBCOMM FM119           
1 41180U 15081B   25027.30072964  .00001762  00000+0  41883-3 0  9998
2 41180  46.9988 141.3627 0001096 189.1478 170.9388 14.57716339485164
ORBCOMM FM105           
1 41181U 15081C   25027.31780536  .00000901  00000+0  30064-3 0  9994
2 41181  47.0010 132.6350 0000925  24.3960 335.6963 14.44996249480378
ORBCOMM FM110           
1 41182U 15081D   25027.91187521  .00001939  00000+0  45687-3 0  9995
2 41182  46.9992 228.5852 0002549 220.1116 139.9582 14.57753455483875
ORBCOMM FM118           
1 41183U 15081E   25026.86595395  .00001301  00000+0  31910-3 0  9998
2 41183  47.0024 233.9344 0002859 211.3431 148.7285 14.57679606483824
ORBCOMM FM112           
1 41184U 15081F   25027.27728091  .00002048  00000+0  48098-3 0  9990
2 41184  46.9976 140.6453 0000449 196.0246 164.0625 14.57700763485101
ORBCOMM FM113           
1 41185U 15081G   25027.32252617  .00001987  00000+0  46774-3 0  9993
2 41185  46.9995 140.7337 0000738 189.9803 170.1068 14.57701418485091
